KNACKSAT-2              
1 67683U 98067XZ  26186.66238610  .00061191  00000+0  69546-3 0  9995
2 67683  51.6260 201.4339 0008278 294.1874  65.8254 15.61685266 23162
GEOSCAN 3 (RS92S3)      
1 64893U 25155T   26187.15410123  .00018721  00000+0  53375-3 0  9993
2 64893  97.4549 157.2607 0008515 110.5656 249.6502 15.36081903 83769
INNOSAT 3 (RS92S0)      
1 64894U 25155U   26187.16591343  .00040935  00000+0  85689-3 0  9994
2 64894  97.4494 159.1350 0008313 110.7985 249.4155 15.45303145 83899
