OBJECT_NAME,OBJECT_ID,EPOCH,MEAN_MOTION,ECCENTRICITY,INCLINATION,RA_OF_ASC_NODE,ARG_OF_PERICENTER,MEAN_ANOMALY,EPHEMERIS_TYPE,CLASSIFICATION_TYPE,NORAD_CAT_ID,ELEMENT_SET_NO,REV_AT_EPOCH,BSTAR,MEAN_MOTION_DOT,MEAN_MOTION_DDOT
GEOSCAN 3 (RS92S3),2025-155T,2026-07-06T03:41:54.346272,15.36081903,.00085156,97.4549,157.2607,110.5656,249.6502,0,U,64893,999,8376,.53374858E-3,.18721E-3,0
INNOSAT 3 (RS92S0),2025-155U,2026-07-06T03:58:54.920352,15.45303145,.00083136,97.4494,159.1350,110.7985,249.4155,0,U,64894,999,8389,.856892E-3,.40935E-3,0
KNACKSAT-2,1998-067XZ,2026-07-05T15:53:50.159040,15.61685266,.00082788,51.6260,201.4339,294.1874,65.8254,0,U,67683,999,2316,.6954593E-3,.61191E-3,0
